CCSDS_OMM_VERS = 2.0
CREATION_DATE  = 
ORIGINATOR     = 

OBJECT_NAME    = STARLINK-36803
OBJECT_ID      = 2026-035Q
CENTER_NAME    = EARTH
REF_FRAME      = TEME
TIME_SYSTEM    = UTC
MEAN_ELEMENT_THEORY = SGP/SGP4

EPOCH          = 2026-03-18T09:04:21.830016
MEAN_MOTION    = 15.80885454
ECCENTRICITY   = .00016919
INCLINATION    = 97.2891
RA_OF_ASC_NODE = 10.2342
ARG_OF_PERICENTER = 114.1629
MEAN_ANOMALY   = 245.9816

EPHEMERIS_TYPE = 0
CLASSIFICATION_TYPE = U
NORAD_CAT_ID   = 67893
ELEMENT_SET_NO = 999
REV_AT_EPOCH   = 521
BSTAR          = .90418826E-3
MEAN_MOTION_DOT = .177178E-2
MEAN_MOTION_DDOT = 0

CCSDS_OMM_VERS = 2.0
CREATION_DATE  = 
ORIGINATOR     = 

OBJECT_NAME    = STARLINK-36846
OBJECT_ID      = 2026-035R
CENTER_NAME    = EARTH
REF_FRAME      = TEME
TIME_SYSTEM    = UTC
MEAN_ELEMENT_THEORY = SGP/SGP4

EPOCH          = 2026-03-18T07:53:22.493184
MEAN_MOTION    = 15.75183807
ECCENTRICITY   = .00042328
INCLINATION    = 97.2863
RA_OF_ASC_NODE = 10.1499
ARG_OF_PERICENTER = 72.0606
MEAN_ANOMALY   = 288.1121

EPHEMERIS_TYPE = 0
CLASSIFICATION_TYPE = U
NORAD_CAT_ID   = 67894
ELEMENT_SET_NO = 999
REV_AT_EPOCH   = 520
BSTAR          = .13580503E-2
MEAN_MOTION_DOT = .207437E-2
MEAN_MOTION_DDOT = 0

CCSDS_OMM_VERS = 2.0
CREATION_DATE  = 
ORIGINATOR     = 

OBJECT_NAME    = STARLINK-36866
OBJECT_ID      = 2026-035S
CENTER_NAME    = EARTH
REF_FRAME      = TEME
TIME_SYSTEM    = UTC
MEAN_ELEMENT_THEORY = SGP/SGP4

EPOCH          = 2026-03-18T14:00:01.000224
MEAN_MOTION    = 15.75207026
ECCENTRICITY   = .0001486
INCLINATION    = 97.2869
RA_OF_ASC_NODE = 10.4387
ARG_OF_PERICENTER = 106.6432
MEAN_ANOMALY   = 300.3971

EPHEMERIS_TYPE = 0
CLASSIFICATION_TYPE = U
NORAD_CAT_ID   = 67895
ELEMENT_SET_NO = 999
REV_AT_EPOCH   = 518
BSTAR          = -.39588925E-3
MEAN_MOTION_DOT = -.58819E-3
MEAN_MOTION_DDOT = 0

CCSDS_OMM_VERS = 2.0
CREATION_DATE  = 
ORIGINATOR     = 

OBJECT_NAME    = STARLINK-36877
OBJECT_ID      = 2026-035T
CENTER_NAME    = EARTH
REF_FRAME      = TEME
TIME_SYSTEM    = UTC
MEAN_ELEMENT_THEORY = SGP/SGP4

EPOCH          = 2026-03-18T09:03:17.047296
MEAN_MOTION    = 15.80900702
ECCENTRICITY   = .00014683
INCLINATION    = 97.2890
RA_OF_ASC_NODE = 10.2348
ARG_OF_PERICENTER = 92.0773
MEAN_ANOMALY   = 268.0664

EPHEMERIS_TYPE = 0
CLASSIFICATION_TYPE = U
NORAD_CAT_ID   = 67896
ELEMENT_SET_NO = 999
REV_AT_EPOCH   = 521
BSTAR          = .10713437E-2
MEAN_MOTION_DOT = .210924E-2
MEAN_MOTION_DDOT = 0

CCSDS_OMM_VERS = 2.0
CREATION_DATE  = 
ORIGINATOR     = 

OBJECT_NAME    = STARLINK-36870
OBJECT_ID      = 2026-035U
CENTER_NAME    = EARTH
REF_FRAME      = TEME
TIME_SYSTEM    = UTC
MEAN_ELEMENT_THEORY = SGP/SGP4

EPOCH          = 2026-03-18T07:28:53.446080
MEAN_MOTION    = 15.80861212
ECCENTRICITY   = .0001944
INCLINATION    = 97.2910
RA_OF_ASC_NODE = 10.1695
ARG_OF_PERICENTER = 96.8983
MEAN_ANOMALY   = 263.2507

EPHEMERIS_TYPE = 0
CLASSIFICATION_TYPE = U
NORAD_CAT_ID   = 67897
ELEMENT_SET_NO = 999
REV_AT_EPOCH   = 520
BSTAR          = .83681E-3
MEAN_MOTION_DOT = .16353E-2
MEAN_MOTION_DDOT = 0

CCSDS_OMM_VERS = 2.0
CREATION_DATE  = 
ORIGINATOR     = 

OBJECT_NAME    = STARLINK-36810
OBJECT_ID      = 2026-035V
CENTER_NAME    = EARTH
REF_FRAME      = TEME
TIME_SYSTEM    = UTC
MEAN_ELEMENT_THEORY = SGP/SGP4

EPOCH          = 2026-03-18T14:00:01.000224
MEAN_MOTION    = 15.76056801
ECCENTRICITY   = .00015433
INCLINATION    = 97.2867
RA_OF_ASC_NODE = 10.4578
ARG_OF_PERICENTER = 85.8080
MEAN_ANOMALY   = 14.7423

EPHEMERIS_TYPE = 0
CLASSIFICATION_TYPE = U
NORAD_CAT_ID   = 67898
ELEMENT_SET_NO = 999
REV_AT_EPOCH   = 518
BSTAR          = -.84811827E-2
MEAN_MOTION_DOT = -.1170145E-1
MEAN_MOTION_DDOT = 0

CCSDS_OMM_VERS = 2.0
CREATION_DATE  = 
ORIGINATOR     = 

OBJECT_NAME    = STARLINK-36878
OBJECT_ID      = 2026-035W
CENTER_NAME    = EARTH
REF_FRAME      = TEME
TIME_SYSTEM    = UTC
MEAN_ELEMENT_THEORY = SGP/SGP4

EPOCH          = 2026-03-18T13:30:15.275520
MEAN_MOTION    = 15.80939435
ECCENTRICITY   = .00014186
INCLINATION    = 97.2903
RA_OF_ASC_NODE = 10.4399
ARG_OF_PERICENTER = 105.2163
MEAN_ANOMALY   = 254.9263

EPHEMERIS_TYPE = 0
CLASSIFICATION_TYPE = U
NORAD_CAT_ID   = 67899
ELEMENT_SET_NO = 999
REV_AT_EPOCH   = 524
BSTAR          = .16784176E-2
MEAN_MOTION_DOT = .335938E-2
MEAN_MOTION_DDOT = 0

CCSDS_OMM_VERS = 2.0
CREATION_DATE  = 
ORIGINATOR     = 

OBJECT_NAME    = STARLINK-36361
OBJECT_ID      = 2026-035X
CENTER_NAME    = EARTH
REF_FRAME      = TEME
TIME_SYSTEM    = UTC
MEAN_ELEMENT_THEORY = SGP/SGP4

EPOCH          = 2026-03-18T13:29:10.259520
MEAN_MOTION    = 15.80925958
ECCENTRICITY   = .00011346
INCLINATION    = 97.2900
RA_OF_ASC_NODE = 10.4413
ARG_OF_PERICENTER = 111.0368
MEAN_ANOMALY   = 249.1022

EPHEMERIS_TYPE = 0
CLASSIFICATION_TYPE = U
NORAD_CAT_ID   = 67900
ELEMENT_SET_NO = 999
REV_AT_EPOCH   = 524
BSTAR          = .146127E-2
MEAN_MOTION_DOT = .29075E-2
MEAN_MOTION_DDOT = 0

CCSDS_OMM_VERS = 2.0
CREATION_DATE  = 
ORIGINATOR     = 

OBJECT_NAME    = STARLINK-36336
OBJECT_ID      = 2026-035Y
CENTER_NAME    = EARTH
REF_FRAME      = TEME
TIME_SYSTEM    = UTC
MEAN_ELEMENT_THEORY = SGP/SGP4

EPOCH          = 2026-03-18T14:00:01.000224
MEAN_MOTION    = 15.78060523
ECCENTRICITY   = .00019277
INCLINATION    = 97.2875
RA_OF_ASC_NODE = 10.4725
ARG_OF_PERICENTER = 77.5556
MEAN_ANOMALY   = 53.9749

EPHEMERIS_TYPE = 0
CLASSIFICATION_TYPE = U
NORAD_CAT_ID   = 67901
ELEMENT_SET_NO = 999
REV_AT_EPOCH   = 523
BSTAR          = -.13056018E-1
MEAN_MOTION_DOT = -.1924325E-1
MEAN_MOTION_DDOT = 0

CCSDS_OMM_VERS = 2.0
CREATION_DATE  = 
ORIGINATOR     = 

OBJECT_NAME    = STARLINK-36876
OBJECT_ID      = 2026-035Z
CENTER_NAME    = EARTH
REF_FRAME      = TEME
TIME_SYSTEM    = UTC
MEAN_ELEMENT_THEORY = SGP/SGP4

EPOCH          = 2026-03-18T13:28:05.254752
MEAN_MOTION    = 15.80888610
ECCENTRICITY   = .00011549
INCLINATION    = 97.2893
RA_OF_ASC_NODE = 10.4436
ARG_OF_PERICENTER = 127.9423
MEAN_ANOMALY   = 232.1950

EPHEMERIS_TYPE = 0
CLASSIFICATION_TYPE = U
NORAD_CAT_ID   = 67902
ELEMENT_SET_NO = 999
REV_AT_EPOCH   = 524
BSTAR          = .99110574E-3
MEAN_MOTION_DOT = .194641E-2
MEAN_MOTION_DDOT = 0

CCSDS_OMM_VERS = 2.0
CREATION_DATE  = 
ORIGINATOR     = 

OBJECT_NAME    = STARLINK-36257
OBJECT_ID      = 2026-035AA
CENTER_NAME    = EARTH
REF_FRAME      = TEME
TIME_SYSTEM    = UTC
MEAN_ELEMENT_THEORY = SGP/SGP4

EPOCH          = 2026-03-18T07:44:13.088544
MEAN_MOTION    = 15.75210934
ECCENTRICITY   = .00028391
INCLINATION    = 97.2863
RA_OF_ASC_NODE = 10.1586
ARG_OF_PERICENTER = 104.0581
MEAN_ANOMALY   = 256.1000

EPHEMERIS_TYPE = 0
CLASSIFICATION_TYPE = U
NORAD_CAT_ID   = 67903
ELEMENT_SET_NO = 999
REV_AT_EPOCH   = 520
BSTAR          = .13437604E-2
MEAN_MOTION_DOT = .2054E-2
MEAN_MOTION_DDOT = 0

CCSDS_OMM_VERS = 2.0
CREATION_DATE  = 
ORIGINATOR     = 

OBJECT_NAME    = STARLINK-36814
OBJECT_ID      = 2026-036A
CENTER_NAME    = EARTH
REF_FRAME      = TEME
TIME_SYSTEM    = UTC
MEAN_ELEMENT_THEORY = SGP/SGP4

EPOCH          = 2026-03-18T14:00:01.000224
MEAN_MOTION    = 15.50541393
ECCENTRICITY   = .0001355
INCLINATION    = 43.0002
RA_OF_ASC_NODE = 197.1822
ARG_OF_PERICENTER = 275.3010
MEAN_ANOMALY   = 235.4879

EPHEMERIS_TYPE = 0
CLASSIFICATION_TYPE = U
NORAD_CAT_ID   = 67904
ELEMENT_SET_NO = 999
REV_AT_EPOCH   = 507
BSTAR          = .94760338E-3
MEAN_MOTION_DOT = .5557E-3
MEAN_MOTION_DDOT = 0

