STARLINK-36803          
1 67893U 26035Q   26077.37803044  .00177178  00000+0  90419-3 0  9996
2 67893  97.2891  10.2342 0001691 114.1629 245.9816 15.80885454  5215
STARLINK-36846          
1 67894U 26035R   26077.32873256  .00207437  00000+0  13581-2 0  9990
2 67894  97.2863  10.1499 0004232  72.0606 288.1121 15.75183807  5202
STARLINK-36866          
1 67895U 26035S   26077.58334491 -.00058819  00000+0 -39589-3 0  9999
2 67895  97.2869  10.4387 0001486 106.6432 300.3971 15.75207026  5184
STARLINK-36877          
1 67896U 26035T   26077.37728064  .00210924  00000+0  10713-2 0  9992
2 67896  97.2890  10.2348 0001468  92.0773 268.0664 15.80900702  5210
STARLINK-36870          
1 67897U 26035U   26077.31172970  .00163530  00000+0  83681-3 0  9991
2 67897  97.2910  10.1695 0001944  96.8983 263.2507 15.80861212  5206
STARLINK-36810          
1 67898U 26035V   26077.58334491 -.01170145  00000+0 -84812-2 0  9998
2 67898  97.2867  10.4578 0001543  85.8080  14.7423 15.76056801  5180
STARLINK-36878          
1 67899U 26035W   26077.56267680  .00335938  00000+0  16784-2 0  9995
2 67899  97.2903  10.4399 0001418 105.2163 254.9263 15.80939435  5248
STARLINK-36361          
1 67900U 26035X   26077.56192430  .00290750  00000+0  14613-2 0  9999
2 67900  97.2900  10.4413 0001134 111.0368 249.1022 15.80925958  5246
STARLINK-36336          
1 67901U 26035Y   26077.58334491 -.01924325  00000+0 -13056-1 0  9991
2 67901  97.2875  10.4725 0001927  77.5556  53.9749 15.78060523  5230
STARLINK-36876          
1 67902U 26035Z   26077.56117193  .00194641  00000+0  99111-3 0  9993
2 67902  97.2893  10.4436 0001154 127.9423 232.1950 15.80888610  5249
STARLINK-36257          
1 67903U 26035AA  26077.32237371  .00205400  00000+0  13438-2 0  9992
2 67903  97.2863  10.1586 0002839 104.0581 256.1000 15.75210934  5202
STARLINK-36814          
1 67904U 26036A   26077.58334491  .00055570  00000+0  94760-3 0  9992
2 67904  43.0002 197.1822 0001355 275.3010 235.4879 15.50541393  5075
